OBJECT_NAME,OBJECT_ID,EPOCH,MEAN_MOTION,ECCENTRICITY,INCLINATION,RA_OF_ASC_NODE,ARG_OF_PERICENTER,MEAN_ANOMALY,EPHEMERIS_TYPE,CLASSIFICATION_TYPE,NORAD_CAT_ID,ELEMENT_SET_NO,REV_AT_EPOCH,BSTAR,MEAN_MOTION_DOT,MEAN_MOTION_DDOT
2026-134A,2026-134A,2026-07-13T15:22:32.485728,15.09452984,.00159438,97.7005,264.8493,175.9385,184.1976,0,U,69538,999,430,.15490246E-3,.242E-4,0
2026-134B,2026-134B,2026-07-13T15:18:17.388864,15.09609403,.00160572,97.6978,264.8443,178.3909,181.7374,0,U,69539,999,429,.15527681E-3,.2437E-4,0
2026-134C,2026-134C,2026-07-13T15:17:25.687968,15.09641736,.00155426,97.6986,264.8472,179.5077,180.6169,0,U,69540,999,429,.15898449E-3,.2498E-4,0
2026-134D,2026-134D,2026-07-13T15:15:52.158240,15.09699432,.0016579,97.7024,264.8626,179.5104,180.6144,0,U,69541,999,429,.15851E-3,.2495E-4,0
2026-134E,2026-134E,2026-07-13T13:39:49.931424,15.09720677,.001631,97.7044,264.8033,180.2386,179.8837,0,U,69542,999,428,.1556E-3,.2449E-4,0
2026-134F,2026-134F,2026-07-13T15:14:01.929120,15.09766365,.0015607,97.6997,264.8543,181.7327,178.3850,0,U,69543,999,429,.15888E-3,.2505E-4,0
2026-134G,2026-134G,2026-07-13T15:11:44.962656,15.09851680,.0016052,97.7041,264.8718,182.5157,177.5994,0,U,69544,999,429,.16771E-3,.2655E-4,0
2026-134H,2026-134H,2026-07-13T16:45:23.095008,15.09918402,.0015918,97.7025,264.9352,183.7041,176.4073,0,U,69545,999,429,.16448423E-3,.2607E-4,0
STARLINK-37880,2026-135A,2026-07-14T14:00:01.999872,15.49179099,.00004428,97.2846,223.8733,142.7135,10.7394,0,U,69546,999,570,.77951462E-3,.42519E-3,0
STARLINK-37881,2026-135B,2026-07-14T14:00:01.999872,15.49195636,.0001198,97.2842,223.9644,69.1563,301.6846,0,U,69547,999,570,.45082443E-3,.2451E-3,0
STARLINK-37265,2026-135C,2026-07-14T14:00:01.999872,15.51282583,.00022916,97.2842,224.0489,75.4152,126.0131,0,U,69548,999,570,-.54422397E-1,-.278865E-1,0
STARLINK-37871,2026-135D,2026-07-14T14:00:01.999872,15.49185796,.00018101,97.2964,223.9556,74.4044,276.1951,0,U,69549,999,570,.52785309E-4,.2781E-4,0
STARLINK-37865,2026-135E,2026-07-14T14:00:01.999872,15.49188931,.00015181,97.2840,223.9672,98.1331,280.3520,0,U,69550,999,571,.47159934E-3,.25642E-3,0
STARLINK-37862,2026-135F,2026-07-14T14:00:01.999872,15.54233036,.00016416,97.2845,224.0390,84.6256,90.2102,0,U,69551,999,571,-.20838246E-1,-.1215896E-1,0
STARLINK-37861,2026-135G,2026-07-14T14:00:01.999872,15.49195359,.00005845,97.2839,223.9918,146.8589,286.6690,0,U,69552,999,571,.5807205E-3,.31627E-3,0
STARLINK-37859,2026-135H,2026-07-14T14:00:01.999872,15.49173648,.00015628,97.2846,224.0100,88.9960,23.6980,0,U,69553,999,571,.60227409E-3,.32785E-3,0
STARLINK-37860,2026-135J,2026-07-14T14:00:01.999872,15.49136638,.00006634,97.2843,224.0484,127.7170,74.2597,0,U,69554,999,571,.62525581E-3,.33999E-3,0
STARLINK-37858,2026-135K,2026-07-14T14:00:01.999872,15.49134726,.00015953,97.2848,224.0338,96.4013,73.7030,0,U,69555,999,571,.85724412E-3,.46722E-3,0
STARLINK-37927,2026-135L,2026-07-14T14:00:01.999872,15.49192940,.00010186,97.2841,223.9875,94.6555,324.2735,0,U,69556,999,571,.76286066E-3,.41624E-3,0
STARLINK-37929,2026-135M,2026-07-14T14:00:01.999872,15.49188314,.00015667,97.2840,223.9440,96.9168,225.0484,0,U,69557,999,571,.52890663E-3,.2878E-3,0
STARLINK-37954,2026-135N,2026-07-14T14:00:01.999872,15.49187058,.00007929,97.2840,223.9469,95.9947,232.7931,0,U,69558,999,571,.53043977E-3,.28862E-3,0
STARLINK-37958,2026-135P,2026-07-14T14:00:01.999872,15.53958784,.00015633,97.2844,224.1057,102.4065,225.5955,0,U,69559,999,571,-.42539335E-1,-.239727E-1,0
STARLINK-37950,2026-135Q,2026-07-14T14:00:01.999872,15.49896578,.00013808,97.2846,224.0475,65.5687,133.7140,0,U,69560,999,571,-.20486945E-1,-.1039426E-1,0
STARLINK-37952,2026-135R,2026-07-14T14:00:01.999872,15.49200429,.00011957,97.2841,223.9987,81.1821,4.4204,0,U,69561,999,571,.75337513E-3,.41114E-3,0
STARLINK-37935,2026-135S,2026-07-14T14:00:01.999872,15.49190439,.00016134,97.2840,223.9513,93.4936,244.9185,0,U,69562,999,571,.51469392E-3,.28004E-3,0
STARLINK-37936,2026-135T,2026-07-14T14:00:01.999872,15.49189768,.00015749,97.2837,223.9844,89.8439,326.5313,0,U,69563,999,571,.42718039E-3,.23212E-3,0
STARLINK-37932,2026-135U,2026-07-14T14:00:01.999872,15.49160061,.00009601,97.2844,224.0847,97.4276,190.4671,0,U,69564,999,571,.80985632E-3,.44157E-3,0
STARLINK-37916,2026-135V,2026-07-14T14:00:01.999872,15.49180970,.00013881,97.2840,224.0431,94.9967,96.6451,0,U,69565,999,571,.68039995E-3,.37079E-3,0
STARLINK-37909,2026-135W,2026-07-14T14:00:01.999872,15.54195803,.00013679,97.2849,224.1493,84.4333,346.3060,0,U,69566,999,571,-.41952944E-1,-.2386278E-1,0
STARLINK-37934,2026-135X,2026-07-14T14:00:01.999872,15.49193201,.00009672,97.2838,224.0450,75.6800,118.7589,0,U,69567,999,571,.5979416E-3,.32569E-3,0
