2026-134A               
1 69538U 26134A   26194.64065377  .00002420  00000+0  15490-3 0  9996
2 69538  97.7005 264.8493 0015943 175.9385 184.1976 15.09452984  4307
2026-134B               
1 69539U 26134B   26194.63770126  .00002437  00000+0  15528-3 0  9991
2 69539  97.6978 264.8443 0016057 178.3909 181.7374 15.09609403  4290
2026-134C               
1 69540U 26134C   26194.63710287  .00002498  00000+0  15898-3 0  9992
2 69540  97.6986 264.8472 0015542 179.5077 180.6169 15.09641736  4295
2026-134D               
1 69541U 26134D   26194.63602035  .00002495  00000+0  15851-3 0  9990
2 69541  97.7024 264.8626 0016579 179.5104 180.6144 15.09699432  4292
2026-134E               
1 69542U 26134E   26194.56932791  .00002449  00000+0  15560-3 0  9994
2 69542  97.7044 264.8033 0016310 180.2386 179.8837 15.09720677  4285
2026-134F               
1 69543U 26134F   26194.63474455  .00002505  00000+0  15888-3 0  9997
2 69543  97.6997 264.8543 0015607 181.7327 178.3850 15.09766365  4291
2026-134G               
1 69544U 26134G   26194.63315929  .00002655  00000+0  16771-3 0  9996
2 69544  97.7041 264.8718 0016052 182.5157 177.5994 15.09851680  4297
2026-134H               
1 69545U 26134H   26194.69818397  .00002607  00000+0  16448-3 0  9998
2 69545  97.7025 264.9352 0015918 183.7041 176.4073 15.09918402  4292
STARLINK-37880          
1 69546U 26135A   26195.58335648  .00042519  00000+0  77951-3 0  9994
2 69546  97.2846 223.8733 0000442 142.7135  10.7394 15.49179099  5709
STARLINK-37881          
1 69547U 26135B   26195.58335648  .00024510  00000+0  45082-3 0  9996
2 69547  97.2842 223.9644 0001198  69.1563 301.6846 15.49195636  5703
STARLINK-37265          
1 69548U 26135C   26195.58335648 -.02788650  00000+0 -54422-1 0  9999
2 69548  97.2842 224.0489 0002291  75.4152 126.0131 15.51282583  5709
STARLINK-37871          
1 69549U 26135D   26195.58335648  .00002781  00000+0  52785-4 0  9993
2 69549  97.2964 223.9556 0001810  74.4044 276.1951 15.49185796  5705
STARLINK-37865          
1 69550U 26135E   26195.58335648  .00025642  00000+0  47160-3 0  9996
2 69550  97.2840 223.9672 0001518  98.1331 280.3520 15.49188931  5710
STARLINK-37862          
1 69551U 26135F   26195.58335648 -.01215896  00000+0 -20838-1 0  9993
2 69551  97.2845 224.0390 0001641  84.6256  90.2102 15.54233036  5715
STARLINK-37861          
1 69552U 26135G   26195.58335648  .00031627  00000+0  58072-3 0  9992
2 69552  97.2839 223.9918 0000584 146.8589 286.6690 15.49195359  5710
STARLINK-37859          
1 69553U 26135H   26195.58335648  .00032785  00000+0  60227-3 0  9994
2 69553  97.2846 224.0100 0001562  88.9960  23.6980 15.49173648  5718
STARLINK-37860          
1 69554U 26135J   26195.58335648  .00033999  00000+0  62526-3 0  9997
2 69554  97.2843 224.0484 0000663 127.7170  74.2597 15.49136638  5711
STARLINK-37858          
1 69555U 26135K   26195.58335648  .00046722  00000+0  85724-3 0  9991
2 69555  97.2848 224.0338 0001595  96.4013  73.7030 15.49134726  5710
STARLINK-37927          
1 69556U 26135L   26195.58335648  .00041624  00000+0  76286-3 0  9991
2 69556  97.2841 223.9875 0001018  94.6555 324.2735 15.49192940  5717
STARLINK-37929          
1 69557U 26135M   26195.58335648  .00028780  00000+0  52891-3 0  9996
2 69557  97.2840 223.9440 0001566  96.9168 225.0484 15.49188314  5717
STARLINK-37954          
1 69558U 26135N   26195.58335648  .00028862  00000+0  53044-3 0  9999
2 69558  97.2840 223.9469 0000792  95.9947 232.7931 15.49187058  5719
STARLINK-37958          
1 69559U 26135P   26195.58335648 -.02397270  00000+0 -42539-1 0  9991
2 69559  97.2844 224.1057 0001563 102.4065 225.5955 15.53958784  5715
STARLINK-37950          
1 69560U 26135Q   26195.58335648 -.01039426  00000+0 -20487-1 0  9996
2 69560  97.2846 224.0475 0001380  65.5687 133.7140 15.49896578  5711
STARLINK-37952          
1 69561U 26135R   26195.58335648  .00041114  00000+0  75338-3 0  9998
2 69561  97.2841 223.9987 0001195  81.1821   4.4204 15.49200429  5710
STARLINK-37935          
1 69562U 26135S   26195.58335648  .00028004  00000+0  51469-3 0  9991
2 69562  97.2840 223.9513 0001613  93.4936 244.9185 15.49190439  5711
STARLINK-37936          
1 69563U 26135T   26195.58335648  .00023212  00000+0  42718-3 0  9995
2 69563  97.2837 223.9844 0001574  89.8439 326.5313 15.49189768  5711
STARLINK-37932          
1 69564U 26135U   26195.58335648  .00044157  00000+0  80986-3 0  9996
2 69564  97.2844 224.0847 0000960  97.4276 190.4671 15.49160061  5717
STARLINK-37916          
1 69565U 26135V   26195.58335648  .00037079  00000+0  68040-3 0  9999
2 69565  97.2840 224.0431 0001388  94.9967  96.6451 15.49180970  5711
STARLINK-37909          
1 69566U 26135W   26195.58335648 -.02386278  00000+0 -41953-1 0  9994
2 69566  97.2849 224.1493 0001367  84.4333 346.3060 15.54195803  5716
STARLINK-37934          
1 69567U 26135X   26195.58335648  .00032569  00000+0  59794-3 0  9996
2 69567  97.2838 224.0450 0000967  75.6800 118.7589 15.49193201  5714
